#dP2021  7  5  0  0  0.00000000      96 __u+U ITR00 EXT  IAC
## 2165  86400.00000000   900.00000000 59400 0.0000000000000
+  117   C06C07C08C09C10C11C12C13C14C16C19C20C21C22C23C24C25
+        C26C27C28C29C30C32C33C34C35C36C37C38C39C40C41C42C43
+        C44C45C46E01E02E03E04E05E07E08E09E11E12E13E14E15E18
+        E19E21E24E25E26E27E30E31E33E36G01G02G03G04G05G06G07
+        G08G09G10G11G12G13G14G15G16G17G18G19G20G21G22G23G24
+        G25G26G27G28G29G30G31G32J01J02J03R01R02R03R04R05R07
+        R08R09R11R12R13R14R15R16R17R18R19R20R21R22R24  0  0
++        11  9 12 10 10  9  8 10  7 11  8  7  8  8  8  9  9
++         8  8  9  7 10  9  7  8  7  7  8 10 10  8  8 10  9
++         7  8  8  8  7  7  9  7  8  7  7  9  8  8  8  7  7
++         8  8  9  8  8  7  7  8  7  7  7  6  6  7  6  6  8
++         7  8  7 11  8  7  9  7  7  7  8  7  7  7  7  8  7
++         7  8  7  7  8  7  7  6 10 10  9  8  8  8  7  7  8
++         9 10  9  8  8  8  7  8  7 10  9  7  8 10  8  0  0
%c M  cc GPS ccc cccc cccc cccc cccc ccccc ccccc ccccc ccccc
%c cc cc ccc ccc cccc cccc cccc cccc ccccc ccccc ccccc ccccc
%f  0.0000000  0.000000000  0.00000000000  0.000000000000000
%f  0.0000000  0.000000000  0.00000000000  0.000000000000000
%i    0    0    0    0      0      0      0      0         0
%i    0    0    0    0      0      0      0      0         0
/* IAC                                ULTRA-RAPID PREDICTION
/* S/V CLOCKS ARE ALIGNED TO GNSS TIME                      
/* G:C1WC2W R:C1PC2P E:C1XC5X C:C2IC6I J:C1CC2S             
/* PCV:IGS14_2148 OL/AL:FES2004  NONE     YN ORB:CoN CLK:CoN
*  2021 07 05  5 45  0.00000000
PC06 -22478.361812  23566.071549 -26566.484777    585.176976
PC07 -15051.859906  38512.553361  -6371.088174    155.598949
PC08  -3519.829706  25410.440157  33665.121598   -900.603049
PC09  -6239.452411  24857.686206 -33241.337013    397.807042
PC10  -5528.322464  41200.197299   5469.116122    -22.173977
PC11  25532.251649  -7561.220171  -8367.983169    439.162926
PC12  26107.983581   3680.929510   9205.018480    821.794657
PC13   6526.113242  31971.093515  26940.815523    324.950430
PC14  18014.436024 -15273.712160 -14886.997690    836.035625
PC16 -19621.274924  24065.846626 -28495.940353   -936.554468
PC19 -14924.686914  22624.890098   6617.895598    897.357642
PC20 -18178.404411   7155.912204  19930.190054   -854.479777
PC21  10705.641878  13393.966813 -21992.431116   -935.105045
PC22  -2911.706088  25451.490410 -11022.621225   -948.526115
PC23  -6639.121954 -24226.618868  12171.220489   -959.096337
PC24  20019.266912   4747.623053  18861.055476   -924.003072
PC25   8634.247048 -14720.351654  22075.384064   -890.696627
PC26  19458.719337  19254.004105   5503.344322    883.238912
PC27 -20347.963351  -9638.561421 -16518.821611    559.243265
PC28   -865.869573 -15846.825911 -22955.594276    -54.346007
PC29 -18562.794382  13473.598546  15883.298363    415.232021
PC30 -27751.516342   2885.899553   -947.632457    473.004172
PC32 -10804.148081 -13377.838526  21997.635214   -924.112468
PC33  14825.872012 -22704.404781  -6635.261855   -940.360036
PC34  27693.234888  -3345.464964    162.219765   -635.226099
PC35    963.223808  15919.268434  22889.895703   -201.926070
PC36  -9245.812641  14204.432304 -22138.639243   -730.712149
PC37 -18640.501572 -20232.590052  -4617.223817   -867.685254
PC38  -3831.045678  27395.022400  31866.714113    159.649358
PC39 -16845.370249  25491.552634 -29101.554404     32.207556
PC40 -13317.390778  39862.494305   2158.747014    177.497769
PC41   3020.995904 -25580.473821  10786.951497   -955.240474
PC42  18111.251516  -6396.658722 -20206.695832   -916.949382
PC43  19051.776275 -13274.756750 -15474.529000   -806.986299
PC44  20490.018964   9133.033186  16565.747204    273.487431
PC45   6880.078501  24204.656668 -12070.348839    485.105377
PC46 -19614.931869  -3662.012949 -19484.807150    193.497020
PE01  -3586.693680 -29368.636640    932.528140  -1143.449096
PE02   3682.542335  29364.477822   -792.061586    230.737912
PE03  -2908.105637  20978.783095 -20667.919585   -449.243330
PE04 -15650.473597  -8840.336825  23527.470841   -806.654898
PE05 -20081.678505  21002.893026  -5616.302564   -267.671576
PE07  25344.869550  -8806.038416 -12505.187394   -557.900425
PE08  15888.994778   8347.378909 -23534.045424   5975.338296
PE09 -25267.124944   9098.669610  12436.834138   5611.047299
PE11 -27072.650560  -2252.662676  11757.639225   5762.643087
PE12 -24466.439101 -14830.991647  -7631.142578   5126.770354
PE13  27193.414151   2497.730911 -11419.898602    418.614037
PE14   6625.135315 -23010.631331 -22068.174609  -1489.370314
PE15  24535.684169  14703.547772   7607.204496    805.177079
PE18  -4689.134073  16411.050486  15959.502718  -1631.970116
PE19   5283.883190 -21612.292840  19534.011620    319.004305
PE21   8620.992316 -22308.429775  17446.460646   -674.461598
PE24 -16616.106733    968.405180 -24484.633269   -990.933262
PE25  -8734.900618  22147.032736 -17579.259945   -539.012767
PE26  13089.589340 -11738.200733 -23817.311996   1615.721076
PE27  16430.203010  -2050.670448  24542.560396    -68.810283
PE30  14089.249170  20219.631478  16396.357793   2809.468028
PE31 -14514.646863 -19268.717490 -17144.720020   -482.914927
PE33  -7442.158159 -18224.872515 -22109.574758   -468.148669
PE36 -13846.755174  11139.261747  23669.240245   -230.117614
PG01 -22460.035440 -14528.927530   -178.546320    637.859728
PG02   5295.056819  18033.915444  19396.982561   -617.343053
PG03 -12328.629704 -14175.095265  18728.350189   -211.236517
PG04 -19004.710720  -4719.541767  17981.239078   -201.659494
PG05   6870.012470  23717.754464  -9705.759474    -46.959762
PG06  -6438.633825  13315.095717  22115.362135     35.678535
PG07 -23100.168479  -4102.712625 -12552.062356    194.885658
PG08 -10048.593699 -11568.169190 -21729.219234    -27.623725
PG09 -24110.554336   5500.494715   9663.022316   -354.190144
PG10  11714.171772 -17171.320266 -16257.103481   -155.740008
PG11   3784.594191  18630.868550  18531.369269      7.202553
PG12  10757.325105  15843.964558  18210.943285    -64.255054
PG13    751.308316  15592.411730 -21604.953612    153.575346
PG14 -12636.437102  17042.365888 -15961.509529     54.786043
PG15  11993.925225  11096.638011 -21340.423660   -137.735619
PG16   -144.252774 -25885.301666  -4981.442916   -352.027027
PG17 -22323.279654  13708.651820   4813.533451    468.904565
PG18  21579.452425   1433.075679 -15482.172397    343.033015
PG19 -17218.227358  15772.874305  12242.510262     22.177067
PG20   3686.055189  26427.323102   -998.591856    520.500379
PG21 -20044.772196 -16090.708785  -6949.303427    129.310394
PG22 -10635.780648 -21077.783822  12550.356923   -571.530409
PG23  14841.729080  -5456.531105 -21353.673454     88.776472
PG24  21120.325547  15657.899138  -5308.688439    161.727287
PG25  14921.627608   3205.628667  21490.859366    167.912432
PG26   4575.314055 -25146.015088   6622.954788    106.733531
PG27   1450.367457 -16663.291991 -20720.433727   -157.933003
PG28 -10124.108893  22000.872894 -10571.621867    543.290299
PG29  24104.060088  -2748.361331  10826.946909   -375.108777
PG30 -15765.499470   7293.004614 -20084.050426   -447.075953
PG31   5190.387553 -14681.252762  21380.763721   -126.866219
PG32  19986.693019 -16092.811765   6612.734048     15.659054
PJ01 -33845.616949  24579.324106  10034.223321   -409.001853
PJ02 -19889.346530  25842.568459 -22155.762636     -0.596663
PJ03 -28881.143310  26220.155820  21286.952720    -10.077937
PR01 -11857.865141  22091.038615  -4645.970000     81.879046
PR02   1767.295939  14614.580840 -20803.558957    484.870034
PR03  13233.999849  -1005.433339 -21727.209553     38.899063
PR04  16968.746040 -15898.712017 -10451.124576     94.349885
PR05  11386.043472 -21821.627865   6671.201811     74.767095
PR07 -13607.284180   1677.026873  21559.600178    -42.136851
PR08 -17027.257297  15888.339804  10486.551004    -59.808548
PR09 -11967.956645 -22517.660737  -1551.581803      1.312886
PR11  -9360.258925   5595.929222 -23045.180026    -18.509600
PR12   1778.439474  20385.928819 -15208.976886    242.711232
PR13  11653.165916  22672.617460    819.325635    -57.242542
PR14  14819.514067  11425.598154  17340.534182     66.102917
PR15   9267.413882  -6096.642246  22993.763801    102.869603
PR16  -2808.562680 -20826.574359  14349.103471    -17.394923
PR17  24613.535963   4416.518350   5140.907128    438.373592
PR18  22446.128251  -3220.982440 -11625.044101     82.340391
PR19   9579.590027  -8725.460308 -21980.210207   -150.325350
PR20 -12151.573181 -10326.484517 -19922.820312    -51.976441
PR21 -24880.542919  -3957.859551  -3907.501354   -221.526620
PR22 -22002.014273   3498.546399  12487.985091   -121.069389
PR24  12952.269773  10414.850732  19365.096521     49.194683
EOF
